{
"type": "FeatureCollection",
"name": "kharghar_power",
"crs": { "type": "name", "properties": { "name": "urn:ogc:def:crs:OGC:1.3:CRS84" } },
"features": [
{ "type": "Feature", "properties": { "name": null, "power": "transformer" }, "geometry": { "type": "Point", "coordinates": [ 73.0618074, 19.0408418 ] } },
{ "type": "Feature", "properties": { "name": null, "power": "transformer" }, "geometry": { "type": "Point", "coordinates": [ 73.0625906, 19.0407455 ] } },
{ "type": "Feature", "properties": { "name": null, "power": "transformer" }, "geometry": { "type": "Point", "coordinates": [ 73.0620622, 19.0408139 ] } },
{ "type": "Feature", "properties": { "name": null, "power": "transformer" }, "geometry": { "type": "Point", "coordinates": [ 73.0613916, 19.0397655 ] } },
{ "type": "Feature", "properties": { "name": null, "power": "transformer" }, "geometry": { "type": "Point", "coordinates": [ 73.0613782, 19.0395982 ] } },
{ "type": "Feature", "properties": { "name": null, "power": "transformer" }, "geometry": { "type": "Point", "coordinates": [ 73.0613246, 19.0392863 ] } },
{ "type": "Feature", "properties": { "name": null, "power": "transformer" }, "geometry": { "type": "Point", "coordinates": [ 73.0787552, 19.0587831 ] } },
{ "type": "Feature", "properties": { "name": "Kharghar Substation", "power": "substation" }, "geometry": { "type": "Polygon", "coordinates": [ [ [ 73.0600247, 19.0370028 ], [ 73.0616604, 19.0368256 ], [ 73.0619171, 19.0366683 ], [ 73.0628264, 19.0379234 ], [ 73.0629498, 19.0381262 ], [ 73.0630216, 19.0383143 ], [ 73.0632693, 19.0402168 ], [ 73.063277, 19.0402763 ], [ 73.0631778, 19.0403067 ], [ 73.0634229, 19.0421278 ], [ 73.0619157, 19.0423164 ], [ 73.0607947, 19.0424522 ], [ 73.0605842, 19.0409622 ], [ 73.0600247, 19.0370028 ] ] ] } },
{ "type": "Feature", "properties": { "name": "220 KV Nerul & Sonkhar to Trombay", "power": "line" }, "geometry": { "type": "LineString", "coordinates": [ [ 73.3241034, 18.3549654 ], [ 73.3239829, 18.3599584 ], [ 73.3236924, 18.3624449 ], [ 73.3233609, 18.3652792 ], [ 73.3230868, 18.3678939 ], [ 73.3227899, 18.3703684 ], [ 73.322514, 18.3728396 ], [ 73.3221914, 18.3756045 ], [ 73.3219274, 18.3780104 ], [ 73.321641, 18.3806198 ], [ 73.3212527, 18.3838095 ], [ 73.3209663, 18.3863855 ], [ 73.3205938, 18.3894917 ], [ 73.3203707, 18.3926028 ], [ 73.320137, 18.3956672 ], [ 73.3198928, 18.3983981 ], [ 73.3196591, 18.4014373 ], [ 73.3193797, 18.4043232 ], [ 73.3191619, 18.4072657 ], [ 73.3189458, 18.4099614 ], [ 73.3187244, 18.4129187 ], [ 73.3184819, 18.415691 ], [ 73.3182482, 18.4186083 ], [ 73.3180113, 18.4215329 ], [ 73.317804, 18.4238967 ], [ 73.3177491, 18.4247747 ], [ 73.3175926, 18.4269246 ], [ 73.3173764, 18.4293032 ], [ 73.3171478, 18.4321603 ], [ 73.3169515, 18.4346567 ], [ 73.3167552, 18.4372897 ], [ 73.3166577, 18.4386011 ], [ 73.3164215, 18.4415951 ], [ 73.3162026, 18.4438412 ], [ 73.31581, 18.4456986 ], [ 73.3153946, 18.4470604 ], [ 73.31433, 18.450551 ], [ 73.3126593, 18.4553086 ], [ 73.3117006, 18.4580676 ], [ 73.3105973, 18.4609874 ], [ 73.3100912, 18.4626805 ], [ 73.3098126, 18.4657063 ], [ 73.3095581, 18.4687792 ], [ 73.3092566, 18.4719848 ], [ 73.309043, 18.4742553 ], [ 73.3088356, 18.4764604 ], [ 73.3085973, 18.4792076 ], [ 73.3083103, 18.48222 ], [ 73.3080623, 18.4852739 ], [ 73.3079086, 18.4872663 ], [ 73.3077009, 18.4897976 ], [ 73.3075517, 18.4922935 ], [ 73.307398, 18.4948644 ], [ 73.3072485, 18.497365 ], [ 73.3070418, 18.5003033 ], [ 73.306891, 18.5030755 ], [ 73.3067354, 18.5060483 ], [ 73.3065513, 18.5088087 ], [ 73.3063708, 18.511682 ], [ 73.3062493, 18.5143022 ], [ 73.3060791, 18.5170857 ], [ 73.3058797, 18.5198392 ], [ 73.3057289, 18.5217371 ], [ 73.305583, 18.5245735 ], [ 73.3053957, 18.5273638 ], [ 73.3052352, 18.5302531 ], [ 73.3050479, 18.5329419 ], [ 73.3048753, 18.5358335 ], [ 73.3046584, 18.538825 ], [ 73.3045229, 18.5415029 ], [ 73.3043413, 18.5441782 ], [ 73.3042084, 18.5466812 ], [ 73.3040051, 18.5497856 ], [ 73.3037991, 18.5520445 ], [ 73.3035552, 18.5543676 ], [ 73.3033248, 18.556927 ], [ 73.30307, 18.5594325 ], [ 73.302826, 18.5619019 ], [ 73.3025793, 18.5642531 ], [ 73.3023408, 18.5666506 ], [ 73.3020562, 18.5694437 ], [ 73.3018536, 18.5716675 ], [ 73.3013311, 18.5736413 ], [ 73.3005567, 18.5764758 ], [ 73.2997823, 18.5793102 ], [ 73.2990672, 18.5820637 ], [ 73.298441, 18.584466 ], [ 73.2977407, 18.5870158 ], [ 73.2970626, 18.589555 ], [ 73.2963845, 18.5921363 ], [ 73.2956249, 18.5948686 ], [ 73.2948579, 18.5978818 ], [ 73.2940279, 18.6009336 ], [ 73.2933128, 18.6033742 ], [ 73.2924013, 18.6064154 ], [ 73.2916268, 18.6089964 ], [ 73.2908932, 18.6114475 ], [ 73.2899669, 18.6144745 ], [ 73.289185, 18.6173328 ], [ 73.2883439, 18.6201946 ], [ 73.2875658, 18.623081 ], [ 73.2867766, 18.6258163 ], [ 73.2860367, 18.6285257 ], [ 73.2866865, 18.6312592 ], [ 73.2872607, 18.6336733 ], [ 73.2879611, 18.6365559 ], [ 73.2886651, 18.6395473 ], [ 73.289447, 18.6426475 ], [ 73.290214, 18.6457932 ], [ 73.2907482, 18.648058 ], [ 73.2913272, 18.6502997 ], [ 73.291846, 18.6525066 ], [ 73.292425, 18.6549294 ], [ 73.2929936, 18.6572778 ], [ 73.2936643, 18.6600183 ], [ 73.2943691, 18.6629946 ], [ 73.2950634, 18.6658666 ], [ 73.295797, 18.668813 ], [ 73.2964783, 18.6716899 ], [ 73.296418, 18.6746933 ], [ 73.2963631, 18.6778498 ], [ 73.2963054, 18.6809077 ], [ 73.2962478, 18.6839234 ], [ 73.2961639, 18.6869439 ], [ 73.2961141, 18.6899868 ], [ 73.2960841, 18.6923969 ], [ 73.2960248, 18.6951311 ], [ 73.2965658, 18.6975634 ], [ 73.2971881, 18.7004342 ], [ 73.2976273, 18.7024797 ], [ 73.2982482, 18.7052071 ], [ 73.2989426, 18.7082546 ], [ 73.2995362, 18.7109037 ], [ 73.300129, 18.7136271 ], [ 73.2993361, 18.7174313 ], [ 73.2974427, 18.7208459 ], [ 73.2955344, 18.7242534 ], [ 73.2941595, 18.7267577 ], [ 73.2931833, 18.7284289 ], [ 73.2916473, 18.7312638 ], [ 73.2900704, 18.7340889 ], [ 73.2888826, 18.7372114 ], [ 73.2877323, 18.740169 ], [ 73.28678, 18.7426772 ], [ 73.2859609, 18.7447943 ], [ 73.2850529, 18.74717 ], [ 73.2842611, 18.7492644 ], [ 73.2833224, 18.7517077 ], [ 73.2822845, 18.7542765 ], [ 73.2813317, 18.7568024 ], [ 73.2818993, 18.7599619 ], [ 73.2823531, 18.7626048 ], [ 73.2829262, 18.7658325 ], [ 73.2833871, 18.7686501 ], [ 73.2839471, 18.7718174 ], [ 73.2844758, 18.7747535 ], [ 73.2849741, 18.7776717 ], [ 73.285551, 18.7808224 ], [ 73.2859367, 18.7832073 ], [ 73.2856324, 18.785867 ], [ 73.2855577, 18.7885021 ], [ 73.2853833, 18.7911168 ], [ 73.2851915, 18.7938735 ], [ 73.2850241, 18.7963594 ], [ 73.2848497, 18.7985614 ], [ 73.2846828, 18.801388 ], [ 73.282869, 18.8041635 ], [ 73.2810695, 18.8069398 ], [ 73.2795315, 18.8093373 ], [ 73.2781309, 18.8114801 ], [ 73.2764596, 18.8137357 ], [ 73.2748275, 18.816393 ], [ 73.2731118, 18.8189875 ], [ 73.2713724, 18.8215314 ], [ 73.2698189, 18.8238444 ], [ 73.2682063, 18.8262449 ], [ 73.267846, 18.8278481 ], [ 73.2662772, 18.8301676 ], [ 73.2648556, 18.832284 ], [ 73.2634126, 18.8344041 ], [ 73.2619127, 18.8366642 ], [ 73.2603666, 18.8389918 ], [ 73.258929, 18.8411823 ], [ 73.2572351, 18.8438286 ], [ 73.2557029, 18.8461585 ], [ 73.2539245, 18.8488812 ], [ 73.252903, 18.850526 ], [ 73.251922, 18.8520386 ], [ 73.2504816, 18.8542605 ], [ 73.2489127, 18.8566598 ], [ 73.2471968, 18.859365 ], [ 73.2456058, 18.8618024 ], [ 73.2440809, 18.8641563 ], [ 73.2424311, 18.8666702 ], [ 73.2403221, 18.8690658 ], [ 73.2387752, 18.870759 ], [ 73.236758, 18.8730189 ], [ 73.2349392, 18.8750703 ], [ 73.2331828, 18.8770207 ], [ 73.2315294, 18.8788912 ], [ 73.2297841, 18.8808033 ], [ 73.2279799, 18.8828372 ], [ 73.2258745, 18.8852012 ], [ 73.2238537, 18.8874471 ], [ 73.2219761, 18.8895642 ], [ 73.2206496, 18.8910452 ], [ 73.218434, 18.8934926 ], [ 73.2163911, 18.8957661 ], [ 73.2143885, 18.898057 ], [ 73.2127277, 18.8999064 ], [ 73.2107509, 18.9021138 ], [ 73.2087227, 18.9043698 ], [ 73.2067128, 18.9066015 ], [ 73.2048095, 18.9087184 ], [ 73.2033177, 18.9103835 ], [ 73.2013116, 18.9126324 ], [ 73.1994625, 18.9147061 ], [ 73.1972956, 18.9171246 ], [ 73.1952764, 18.91937 ], [ 73.1933547, 18.921518 ], [ 73.1930826, 18.924176 ], [ 73.1928024, 18.9269126 ], [ 73.1924869, 18.9299941 ], [ 73.1922781, 18.9320333 ], [ 73.1919079, 18.935393 ], [ 73.1916632, 18.9378393 ], [ 73.1913903, 18.9403704 ], [ 73.191086, 18.9432566 ], [ 73.190831, 18.9458548 ], [ 73.1905891, 18.9480963 ], [ 73.1904053, 18.9498528 ], [ 73.1876971, 18.9514868 ], [ 73.1848577, 18.9531745 ], [ 73.1824362, 18.9546417 ], [ 73.179999, 18.9561185 ], [ 73.1771688, 18.9578089 ], [ 73.1744676, 18.9594223 ], [ 73.1718949, 18.9609589 ], [ 73.1693325, 18.9624902 ], [ 73.1668901, 18.9639497 ], [ 73.1645648, 18.9653525 ], [ 73.1618922, 18.966945 ], [ 73.1600965, 18.9680708 ], [ 73.1578608, 18.9693575 ], [ 73.1562965, 18.9702946 ], [ 73.1536791, 18.9718647 ], [ 73.1510336, 18.9734611 ], [ 73.1489324, 18.9736991 ], [ 73.1481127, 18.9741333 ], [ 73.1479752, 18.9752838 ], [ 73.1460323, 18.9764515 ], [ 73.1454262, 18.9768138 ], [ 73.1438431, 18.9777602 ], [ 73.1414134, 18.979192 ], [ 73.1390579, 18.9806112 ], [ 73.1365045, 18.9821412 ], [ 73.1340996, 18.9833617 ], [ 73.1317647, 18.9852784 ], [ 73.1294502, 18.9869105 ], [ 73.1271601, 18.9885391 ], [ 73.1248946, 18.9902552 ], [ 73.1226891, 18.9917253 ], [ 73.1200079, 18.9938791 ], [ 73.1173666, 18.9960008 ], [ 73.115668, 18.9973471 ], [ 73.1137296, 18.9992666 ], [ 73.1119677, 19.0008231 ], [ 73.1102168, 19.0017344 ], [ 73.1090699, 19.0010643 ], [ 73.1064751, 19.0018004 ], [ 73.1039806, 19.0024931 ], [ 73.1003676, 19.0035713 ], [ 73.0989241, 19.0040723 ], [ 73.0961287, 19.0050639 ], [ 73.0934162, 19.0060102 ], [ 73.0906426, 19.0069771 ], [ 73.0878734, 19.0079234 ], [ 73.0850192, 19.0089336 ], [ 73.0822194, 19.0099025 ], [ 73.0788353, 19.0110838 ], [ 73.0755384, 19.0124032 ], [ 73.0730175, 19.0134252 ], [ 73.0703093, 19.0145116 ], [ 73.0677298, 19.0155609 ], [ 73.0649519, 19.0166741 ], [ 73.0622132, 19.0177832 ], [ 73.0594875, 19.0188674 ], [ 73.0568076, 19.0199479 ], [ 73.0540471, 19.0210775 ], [ 73.0514248, 19.0221178 ], [ 73.0492984, 19.0229568 ], [ 73.0476928, 19.0235903 ], [ 73.0475641, 19.0236719 ], [ 73.0453098, 19.0251026 ], [ 73.0429963, 19.0265044 ], [ 73.0403172, 19.0281481 ], [ 73.0381639, 19.0294642 ], [ 73.0355293, 19.0310578 ], [ 73.0348835, 19.0314485 ], [ 73.0321065, 19.0330597 ], [ 73.03015, 19.0348125 ], [ 73.0290136, 19.0357808 ], [ 73.0268445, 19.037619 ], [ 73.0246479, 19.0394746 ], [ 73.0225007, 19.041299 ], [ 73.0201774, 19.0433 ], [ 73.0195892, 19.0437314 ], [ 73.0194079, 19.0439046 ], [ 73.0180924, 19.0450148 ], [ 73.0155183, 19.0472089 ], [ 73.0134566, 19.0489466 ], [ 73.0109867, 19.0510155 ], [ 73.0081724, 19.053452 ], [ 73.0059519, 19.0553477 ], [ 73.0037076, 19.0572308 ], [ 73.0013327, 19.0592227 ], [ 72.9985372, 19.0616229 ], [ 72.9948394, 19.0645447 ], [ 72.991882, 19.0668599 ], [ 72.9889316, 19.0691392 ], [ 72.9866102, 19.0696095 ], [ 72.9844523, 19.0700708 ] ] } },
{ "type": "Feature", "properties": { "name": null, "power": "line" }, "geometry": { "type": "LineString", "coordinates": [ [ 73.0605474, 19.0082639 ], [ 73.0613998, 19.0107498 ], [ 73.062247, 19.0129696 ], [ 73.0631007, 19.0154071 ], [ 73.0624073, 19.0184787 ], [ 73.0573878, 19.0233107 ], [ 73.0561889, 19.0250643 ], [ 73.0566361, 19.0273557 ] ] } },
{ "type": "Feature", "properties": { "name": null, "power": "line" }, "geometry": { "type": "LineString", "coordinates": [ [ 73.0476928, 19.0235903 ], [ 73.0478032, 19.0237247 ], [ 73.0488495, 19.025263 ], [ 73.0504733, 19.0256948 ], [ 73.0507562, 19.0258071 ], [ 73.0514042, 19.0260643 ], [ 73.0517725, 19.0281044 ], [ 73.0523319, 19.0290667 ], [ 73.0534384, 19.0311033 ], [ 73.0543219, 19.03151 ], [ 73.0562187, 19.032383 ], [ 73.0563256, 19.0335912 ], [ 73.0566673, 19.035993 ], [ 73.056687, 19.0361311 ], [ 73.0569056, 19.0384063 ], [ 73.0569289, 19.0386491 ] ] } },
{ "type": "Feature", "properties": { "name": null, "power": "line" }, "geometry": { "type": "LineString", "coordinates": [ [ 73.0329419, 19.0295476 ], [ 73.0343633, 19.0283093 ], [ 73.0359751, 19.0269177 ], [ 73.0376873, 19.0254219 ], [ 73.04203, 19.0217608 ], [ 73.0430942, 19.0207578 ], [ 73.0441371, 19.0195533 ], [ 73.0462714, 19.0176904 ], [ 73.0483128, 19.0158712 ], [ 73.0502401, 19.014189 ], [ 73.0518128, 19.0128187 ], [ 73.0537277, 19.0112969 ], [ 73.0557198, 19.0095534 ], [ 73.0576939, 19.0080587 ], [ 73.0585601, 19.0074021 ] ] } },
{ "type": "Feature", "properties": { "name": null, "power": "line" }, "geometry": { "type": "LineString", "coordinates": [ [ 73.0592207, 19.0386324 ], [ 73.0586988, 19.0386888 ], [ 73.0580702, 19.0387672 ], [ 73.0577464, 19.0388076 ], [ 73.0573746, 19.038854 ], [ 73.0569289, 19.0386491 ] ] } },
{ "type": "Feature", "properties": { "name": null, "power": "line" }, "geometry": { "type": "LineString", "coordinates": [ [ 73.0618328, 19.0379565 ], [ 73.0615566, 19.0371406 ] ] } },
{ "type": "Feature", "properties": { "name": null, "power": "line" }, "geometry": { "type": "LineString", "coordinates": [ [ 73.0615566, 19.0371406 ], [ 73.0615782, 19.0376711 ] ] } },
{ "type": "Feature", "properties": { "name": null, "power": "line" }, "geometry": { "type": "LineString", "coordinates": [ [ 73.0569289, 19.0386491 ], [ 73.0572129, 19.0391978 ], [ 73.0596096, 19.0388937 ] ] } },
{ "type": "Feature", "properties": { "name": "220 KV Uran Kharghar DCDCon MC", "power": "line" }, "geometry": { "type": "LineString", "coordinates": [ [ 73.0566361, 19.0273557 ], [ 73.0571951, 19.0294052 ], [ 73.0574048, 19.0311018 ], [ 73.05901, 19.0334078 ], [ 73.0604681, 19.0355344 ], [ 73.0615566, 19.0371406 ] ] } },
{ "type": "Feature", "properties": { "name": null, "power": "line" }, "geometry": { "type": "LineString", "coordinates": [ [ 73.0271093, 19.0343725 ], [ 73.0290488, 19.0329026 ], [ 73.0312732, 19.0312169 ], [ 73.0319308, 19.0309341 ], [ 73.0332382, 19.0295476 ], [ 73.0355106, 19.0274774 ], [ 73.0366601, 19.0264391 ], [ 73.0380589, 19.0252642 ], [ 73.0392955, 19.0242411 ], [ 73.0415733, 19.0222961 ], [ 73.042269, 19.0216761 ], [ 73.0443904, 19.019527 ], [ 73.0463763, 19.0177545 ], [ 73.0484115, 19.0159732 ], [ 73.0503465, 19.0142755 ], [ 73.0518668, 19.0129403 ], [ 73.0541799, 19.0111313 ], [ 73.0560098, 19.0097436 ], [ 73.0577646, 19.0083019 ], [ 73.0587259, 19.0075711 ] ] } },
{ "type": "Feature", "properties": { "name": null, "power": "substation" }, "geometry": { "type": "Polygon", "coordinates": [ [ [ 73.0673714, 19.0653975 ], [ 73.0676795, 19.0664575 ], [ 73.0678767, 19.0663817 ], [ 73.0683019, 19.0658721 ], [ 73.06808, 19.0651907 ], [ 73.0673714, 19.0653975 ] ] ] } },
{ "type": "Feature", "properties": { "name": null, "power": "substation" }, "geometry": { "type": "Polygon", "coordinates": [ [ [ 73.0789253, 19.0590404 ], [ 73.0787897, 19.0590549 ], [ 73.0787812, 19.0589695 ], [ 73.0786561, 19.0589799 ], [ 73.0786242, 19.0589423 ], [ 73.0785791, 19.0585646 ], [ 73.0788517, 19.0585311 ], [ 73.0789096, 19.058954 ], [ 73.0789357, 19.0589532 ], [ 73.0789381, 19.0590206 ], [ 73.0789253, 19.0590404 ] ] ] } },
{ "type": "Feature", "properties": { "name": null, "power": "line" }, "geometry": { "type": "LineString", "coordinates": [ [ 73.0566361, 19.0273557 ], [ 73.0558705, 19.0248148 ], [ 73.0569393, 19.0231437 ], [ 73.0610289, 19.0187898 ], [ 73.0611685, 19.0177673 ], [ 73.0592271, 19.0133737 ], [ 73.0574384, 19.0092014 ], [ 73.0563133, 19.0074614 ], [ 73.0548302, 19.0051287 ] ] } },
{ "type": "Feature", "properties": { "name": null, "power": "line" }, "geometry": { "type": "LineString", "coordinates": [ [ 73.0573008, 19.0074527 ], [ 73.0549636, 19.0096093 ], [ 73.0539965, 19.0105847 ], [ 73.0505252, 19.0136481 ], [ 73.0459593, 19.0177464 ], [ 73.0427845, 19.0205994 ], [ 73.041609, 19.0216007 ], [ 73.039652, 19.0233537 ], [ 73.0381015, 19.0246869 ], [ 73.0355707, 19.0268856 ], [ 73.0328885, 19.0291833 ], [ 73.0315619, 19.0307652 ], [ 73.0289957, 19.0327313 ], [ 73.0265661, 19.0345551 ], [ 73.0236804, 19.0367664 ], [ 73.0216405, 19.0382875 ], [ 73.0191424, 19.0402119 ], [ 73.0179343, 19.0413373 ], [ 73.0166582, 19.0426372 ], [ 73.0149379, 19.0443086 ], [ 73.0126575, 19.0463288 ], [ 73.0103863, 19.0483559 ], [ 73.0078937, 19.0506245 ], [ 73.0056891, 19.052623 ], [ 73.0035511, 19.054551 ], [ 73.0014437, 19.0564149 ], [ 72.9990595, 19.0585811 ], [ 72.9966268, 19.0607981 ], [ 72.9952468, 19.0620203 ], [ 72.9927702, 19.0641733 ], [ 72.9904041, 19.066316 ] ] } },
{ "type": "Feature", "properties": { "name": null, "power": "line" }, "geometry": { "type": "LineString", "coordinates": [ [ 73.0628976, 19.0410851 ], [ 73.0626518, 19.0411149 ], [ 73.0624037, 19.0411449 ], [ 73.0621393, 19.0411769 ], [ 73.0618853, 19.0412077 ], [ 73.0616351, 19.041238 ], [ 73.0611309, 19.041299 ], [ 73.0608704, 19.0413305 ], [ 73.0609448, 19.041879 ], [ 73.0609769, 19.0421159 ], [ 73.0612305, 19.0420852 ], [ 73.0614885, 19.0420539 ], [ 73.0617407, 19.0420234 ], [ 73.0619991, 19.0419921 ], [ 73.0622538, 19.0419612 ], [ 73.0625076, 19.0419305 ], [ 73.0627583, 19.0419001 ], [ 73.063004, 19.0418703 ], [ 73.0629711, 19.0416275 ], [ 73.0628976, 19.0410851 ] ] } },
{ "type": "Feature", "properties": { "name": null, "power": "line" }, "geometry": { "type": "LineString", "coordinates": [ [ 73.0612305, 19.0420852 ], [ 73.0612007, 19.0418472 ], [ 73.0611309, 19.041299 ] ] } },
{ "type": "Feature", "properties": { "name": null, "power": "line" }, "geometry": { "type": "LineString", "coordinates": [ [ 73.0626518, 19.0411149 ], [ 73.0627273, 19.0416578 ], [ 73.0627583, 19.0419001 ] ] } },
{ "type": "Feature", "properties": { "name": null, "power": "line" }, "geometry": { "type": "LineString", "coordinates": [ [ 73.0616351, 19.041238 ], [ 73.061708, 19.0417843 ], [ 73.0617407, 19.0420234 ] ] } },
{ "type": "Feature", "properties": { "name": null, "power": "line" }, "geometry": { "type": "LineString", "coordinates": [ [ 73.0621393, 19.0411769 ], [ 73.0622166, 19.0417212 ], [ 73.0622538, 19.0419612 ] ] } },
{ "type": "Feature", "properties": { "name": null, "power": "line" }, "geometry": { "type": "LineString", "coordinates": [ [ 73.0609448, 19.041879 ], [ 73.0612007, 19.0418472 ], [ 73.061458, 19.0418153 ], [ 73.061708, 19.0417843 ], [ 73.0619646, 19.0417524 ], [ 73.0622166, 19.0417212 ], [ 73.0624756, 19.041689 ], [ 73.0627273, 19.0416578 ], [ 73.0629711, 19.0416275 ] ] } },
{ "type": "Feature", "properties": { "name": null, "power": "line" }, "geometry": { "type": "LineString", "coordinates": [ [ 73.061458, 19.0418153 ], [ 73.0614885, 19.0420539 ] ] } },
{ "type": "Feature", "properties": { "name": null, "power": "line" }, "geometry": { "type": "LineString", "coordinates": [ [ 73.0625076, 19.0419305 ], [ 73.0624756, 19.041689 ], [ 73.0624037, 19.0411449 ] ] } },
{ "type": "Feature", "properties": { "name": null, "power": "line" }, "geometry": { "type": "LineString", "coordinates": [ [ 73.0619991, 19.0419921 ], [ 73.0619646, 19.0417524 ], [ 73.0618853, 19.0412077 ] ] } },
{ "type": "Feature", "properties": { "name": null, "power": "line" }, "geometry": { "type": "LineString", "coordinates": [ [ 73.0618853, 19.0412077 ], [ 73.0618074, 19.0408418 ] ] } },
{ "type": "Feature", "properties": { "name": null, "power": "line" }, "geometry": { "type": "LineString", "coordinates": [ [ 73.0621393, 19.0411769 ], [ 73.0620622, 19.0408139 ] ] } },
{ "type": "Feature", "properties": { "name": null, "power": "line" }, "geometry": { "type": "LineString", "coordinates": [ [ 73.0626518, 19.0411149 ], [ 73.0625906, 19.0407455 ] ] } },
{ "type": "Feature", "properties": { "name": null, "power": "line" }, "geometry": { "type": "LineString", "coordinates": [ [ 73.0609027, 19.0375238 ], [ 73.0607289, 19.0375455 ], [ 73.060374, 19.03759 ], [ 73.0603979, 19.0377598 ], [ 73.0604188, 19.0379091 ], [ 73.0604427, 19.0380793 ], [ 73.0604638, 19.0382302 ], [ 73.0604872, 19.0383967 ], [ 73.0605096, 19.038556 ], [ 73.0605324, 19.0387191 ], [ 73.0605544, 19.0388759 ], [ 73.0605786, 19.039048 ], [ 73.0605991, 19.0391942 ], [ 73.0606222, 19.0393591 ], [ 73.0606439, 19.0395141 ], [ 73.0606679, 19.0396847 ], [ 73.0606902, 19.0398436 ], [ 73.0607129, 19.0400057 ], [ 73.060735, 19.0401635 ], [ 73.0607599, 19.0403406 ], [ 73.0607805, 19.0404877 ], [ 73.0608025, 19.0406442 ], [ 73.0608268, 19.0408173 ], [ 73.0608489, 19.0409748 ], [ 73.0612056, 19.0409301 ], [ 73.0613769, 19.0409087 ], [ 73.0613553, 19.0407549 ], [ 73.0613303, 19.0405765 ], [ 73.0613087, 19.0404222 ], [ 73.0612873, 19.0402694 ], [ 73.0612632, 19.0400973 ], [ 73.0612415, 19.039942 ], [ 73.0612182, 19.0397759 ], [ 73.0611958, 19.0396159 ], [ 73.0611727, 19.039451 ], [ 73.06115, 19.0392889 ], [ 73.0611279, 19.0391314 ], [ 73.0611067, 19.0389796 ], [ 73.0610829, 19.03881 ], [ 73.0610613, 19.0386557 ], [ 73.0610384, 19.0384926 ], [ 73.0610158, 19.0383311 ], [ 73.0609926, 19.0381655 ], [ 73.0609709, 19.0380106 ], [ 73.0609478, 19.0378456 ], [ 73.0609262, 19.0376913 ], [ 73.0609027, 19.0375238 ] ] } },
{ "type": "Feature", "properties": { "name": null, "power": "line" }, "geometry": { "type": "LineString", "coordinates": [ [ 73.0607289, 19.0375455 ], [ 73.060753, 19.0377162 ], [ 73.060774, 19.0378655 ], [ 73.0607976, 19.0380329 ], [ 73.0608193, 19.0381875 ], [ 73.0608427, 19.0383531 ], [ 73.0608652, 19.0385131 ], [ 73.0608882, 19.0386767 ], [ 73.0609101, 19.0388323 ], [ 73.060934, 19.0390019 ], [ 73.0609551, 19.0391515 ], [ 73.0609772, 19.0393086 ], [ 73.061, 19.0394704 ], [ 73.0610237, 19.0396385 ], [ 73.0610462, 19.0397984 ], [ 73.0610693, 19.0399626 ], [ 73.0610912, 19.0401179 ], [ 73.0611158, 19.0402928 ], [ 73.0611369, 19.0404425 ], [ 73.0611589, 19.0405986 ], [ 73.061184, 19.0407766 ], [ 73.0612056, 19.0409301 ] ] } },
{ "type": "Feature", "properties": { "name": null, "power": "line" }, "geometry": { "type": "LineString", "coordinates": [ [ 73.0625906, 19.0407455 ], [ 73.0625852, 19.0403613 ], [ 73.0617028, 19.0399455 ], [ 73.061338, 19.0399303 ], [ 73.0612415, 19.039942 ] ] } },
{ "type": "Feature", "properties": { "name": null, "power": "line" }, "geometry": { "type": "LineString", "coordinates": [ [ 73.0618074, 19.0408418 ], [ 73.0618878, 19.0404095 ], [ 73.0616786, 19.0401331 ], [ 73.0612873, 19.0402694 ] ] } },
{ "type": "Feature", "properties": { "name": null, "power": "line" }, "geometry": { "type": "LineString", "coordinates": [ [ 73.0620622, 19.0408139 ], [ 73.0621105, 19.0403994 ], [ 73.0616786, 19.0401331 ], [ 73.0612632, 19.0400973 ] ] } },
{ "type": "Feature", "properties": { "name": null, "power": "line" }, "geometry": { "type": "LineString", "coordinates": [ [ 73.0607129, 19.0400057 ], [ 73.0610693, 19.0399626 ], [ 73.0612415, 19.039942 ] ] } },
{ "type": "Feature", "properties": { "name": null, "power": "line" }, "geometry": { "type": "LineString", "coordinates": [ [ 73.0613553, 19.0407549 ], [ 73.061184, 19.0407766 ], [ 73.0608268, 19.0408173 ] ] } },
{ "type": "Feature", "properties": { "name": null, "power": "line" }, "geometry": { "type": "LineString", "coordinates": [ [ 73.0613087, 19.0404222 ], [ 73.0611369, 19.0404425 ], [ 73.0607805, 19.0404877 ] ] } },
{ "type": "Feature", "properties": { "name": null, "power": "line" }, "geometry": { "type": "LineString", "coordinates": [ [ 73.0608025, 19.0406442 ], [ 73.0611589, 19.0405986 ], [ 73.0613303, 19.0405765 ] ] } },
{ "type": "Feature", "properties": { "name": null, "power": "line" }, "geometry": { "type": "LineString", "coordinates": [ [ 73.0607599, 19.0403406 ], [ 73.0611158, 19.0402928 ], [ 73.0612873, 19.0402694 ] ] } },
{ "type": "Feature", "properties": { "name": null, "power": "line" }, "geometry": { "type": "LineString", "coordinates": [ [ 73.0612632, 19.0400973 ], [ 73.0610912, 19.0401179 ], [ 73.060735, 19.0401635 ] ] } },
{ "type": "Feature", "properties": { "name": null, "power": "line" }, "geometry": { "type": "LineString", "coordinates": [ [ 73.0612182, 19.0397759 ], [ 73.0610462, 19.0397984 ], [ 73.0606902, 19.0398436 ] ] } },
{ "type": "Feature", "properties": { "name": null, "power": "line" }, "geometry": { "type": "LineString", "coordinates": [ [ 73.0606679, 19.0396847 ], [ 73.0610237, 19.0396385 ], [ 73.0611958, 19.0396159 ] ] } },
{ "type": "Feature", "properties": { "name": null, "power": "line" }, "geometry": { "type": "LineString", "coordinates": [ [ 73.0611958, 19.0396159 ], [ 73.0613782, 19.0395982 ] ] } },
{ "type": "Feature", "properties": { "name": null, "power": "line" }, "geometry": { "type": "LineString", "coordinates": [ [ 73.0612182, 19.0397759 ], [ 73.0613916, 19.0397655 ] ] } },
{ "type": "Feature", "properties": { "name": null, "power": "line" }, "geometry": { "type": "LineString", "coordinates": [ [ 73.0611727, 19.039451 ], [ 73.061, 19.0394704 ], [ 73.0606439, 19.0395141 ] ] } },
{ "type": "Feature", "properties": { "name": null, "power": "line" }, "geometry": { "type": "LineString", "coordinates": [ [ 73.0606222, 19.0393591 ], [ 73.0609772, 19.0393086 ], [ 73.06115, 19.0392889 ] ] } },
{ "type": "Feature", "properties": { "name": null, "power": "line" }, "geometry": { "type": "LineString", "coordinates": [ [ 73.06115, 19.0392889 ], [ 73.0613246, 19.0392863 ] ] } },
{ "type": "Feature", "properties": { "name": null, "power": "line" }, "geometry": { "type": "LineString", "coordinates": [ [ 73.0611279, 19.0391314 ], [ 73.0609551, 19.0391515 ], [ 73.0605991, 19.0391942 ] ] } },
{ "type": "Feature", "properties": { "name": null, "power": "line" }, "geometry": { "type": "LineString", "coordinates": [ [ 73.0605786, 19.039048 ], [ 73.060934, 19.0390019 ], [ 73.0611067, 19.0389796 ] ] } },
{ "type": "Feature", "properties": { "name": null, "power": "line" }, "geometry": { "type": "LineString", "coordinates": [ [ 73.0610829, 19.03881 ], [ 73.0609101, 19.0388323 ], [ 73.0605544, 19.0388759 ], [ 73.0600287, 19.038942 ], [ 73.0596096, 19.0388937 ] ] } },
{ "type": "Feature", "properties": { "name": null, "power": "line" }, "geometry": { "type": "LineString", "coordinates": [ [ 73.0596096, 19.0388937 ], [ 73.0600099, 19.0387822 ], [ 73.0605324, 19.0387191 ], [ 73.0608882, 19.0386767 ], [ 73.0610613, 19.0386557 ] ] } },
{ "type": "Feature", "properties": { "name": null, "power": "line" }, "geometry": { "type": "LineString", "coordinates": [ [ 73.0610384, 19.0384926 ], [ 73.0608652, 19.0385131 ], [ 73.0605096, 19.038556 ], [ 73.0604284, 19.0385642 ], [ 73.0592207, 19.0386324 ] ] } },
{ "type": "Feature", "properties": { "name": null, "power": "line" }, "geometry": { "type": "LineString", "coordinates": [ [ 73.0592207, 19.0386324 ], [ 73.0604069, 19.038407 ], [ 73.0604872, 19.0383967 ], [ 73.0608427, 19.0383531 ], [ 73.0610158, 19.0383311 ] ] } },
{ "type": "Feature", "properties": { "name": null, "power": "line" }, "geometry": { "type": "LineString", "coordinates": [ [ 73.0618328, 19.0379565 ], [ 73.0610939, 19.0381504 ], [ 73.0609926, 19.0381655 ], [ 73.0608193, 19.0381875 ], [ 73.0604638, 19.0382302 ] ] } },
{ "type": "Feature", "properties": { "name": null, "power": "line" }, "geometry": { "type": "LineString", "coordinates": [ [ 73.0604427, 19.0380793 ], [ 73.0607976, 19.0380329 ], [ 73.0609709, 19.0380106 ], [ 73.0610724, 19.0379983 ], [ 73.0618328, 19.0379565 ] ] } },
{ "type": "Feature", "properties": { "name": null, "power": "line" }, "geometry": { "type": "LineString", "coordinates": [ [ 73.0615782, 19.0376711 ], [ 73.061051, 19.0378309 ], [ 73.0609478, 19.0378456 ], [ 73.060774, 19.0378655 ], [ 73.0604188, 19.0379091 ] ] } },
{ "type": "Feature", "properties": { "name": null, "power": "line" }, "geometry": { "type": "LineString", "coordinates": [ [ 73.0603979, 19.0377598 ], [ 73.060753, 19.0377162 ], [ 73.0609262, 19.0376913 ], [ 73.0610268, 19.0376737 ], [ 73.0615782, 19.0376711 ] ] } },
{ "type": "Feature", "properties": { "name": null, "power": "line" }, "geometry": { "type": "LineString", "coordinates": [ [ 73.0598422, 19.0414504 ], [ 73.0599175, 19.04201 ], [ 73.0599485, 19.0422403 ], [ 73.0601764, 19.0422129 ], [ 73.0601453, 19.0419815 ], [ 73.06007, 19.041423 ], [ 73.0598422, 19.0414504 ] ] } },
{ "type": "Feature", "properties": { "name": null, "power": "line" }, "geometry": { "type": "LineString", "coordinates": [ [ 73.0608704, 19.0413305 ], [ 73.06007, 19.041423 ] ] } },
{ "type": "Feature", "properties": { "name": null, "power": "line" }, "geometry": { "type": "LineString", "coordinates": [ [ 73.0601764, 19.0422129 ], [ 73.0609769, 19.0421159 ] ] } },
{ "type": "Feature", "properties": { "name": null, "power": "line" }, "geometry": { "type": "LineString", "coordinates": [ [ 73.0601453, 19.0419815 ], [ 73.0609448, 19.041879 ] ] } },
{ "type": "Feature", "properties": { "name": null, "power": "line" }, "geometry": { "type": "LineString", "coordinates": [ [ 73.0599175, 19.04201 ], [ 73.0601453, 19.0419815 ] ] } },
{ "type": "Feature", "properties": { "name": null, "power": "line" }, "geometry": { "type": "LineString", "coordinates": [ [ 73.0609769, 19.0421159 ], [ 73.0609943, 19.042233 ], [ 73.0612426, 19.0432089 ], [ 73.0612438, 19.0422102 ], [ 73.0612305, 19.0420852 ] ] } },
{ "type": "Feature", "properties": { "name": null, "power": "line" }, "geometry": { "type": "LineString", "coordinates": [ [ 73.0599485, 19.0422403 ], [ 73.059967, 19.0423674 ], [ 73.0599885, 19.0429759 ] ] } },
{ "type": "Feature", "properties": { "name": null, "power": "line" }, "geometry": { "type": "LineString", "coordinates": [ [ 73.0599885, 19.0429759 ], [ 73.0601789, 19.0423471 ], [ 73.0601764, 19.0422129 ] ] } },
{ "type": "Feature", "properties": { "name": "400 KV LILO on Talegaon_Kalwa for Kharghar", "power": "line" }, "geometry": { "type": "LineString", "coordinates": [ [ 73.1741421, 19.152892 ], [ 73.1720136, 19.150688 ], [ 73.1700115, 19.148615 ], [ 73.1656234, 19.1488886 ], [ 73.1629305, 19.147338 ], [ 73.1601892, 19.1460356 ], [ 73.1577806, 19.1449359 ], [ 73.1558012, 19.143821 ], [ 73.1519978, 19.1427669 ], [ 73.1479476, 19.1421891 ], [ 73.1452601, 19.1412567 ], [ 73.1408613, 19.1397878 ], [ 73.1371974, 19.1385403 ], [ 73.1340163, 19.1367209 ], [ 73.1306218, 19.1347824 ], [ 73.126928, 19.1329295 ], [ 73.1248806, 19.1311207 ], [ 73.1215924, 19.1303257 ], [ 73.1207704, 19.127986 ], [ 73.1200947, 19.1260623 ], [ 73.1189717, 19.1228433 ], [ 73.1179939, 19.1225902 ], [ 73.1172161, 19.1222202 ], [ 73.1160575, 19.1213989 ], [ 73.1146762, 19.1202281 ], [ 73.111892, 19.1179092 ], [ 73.1106017, 19.116807 ], [ 73.1089817, 19.115545 ], [ 73.1070559, 19.1141156 ], [ 73.1044939, 19.1122043 ], [ 73.1021188, 19.1104293 ], [ 73.0993527, 19.1083522 ], [ 73.0982656, 19.1096339 ], [ 73.0966953, 19.1128118 ], [ 73.0957389, 19.1139037 ], [ 73.0938119, 19.1128207 ], [ 73.0917276, 19.1111167 ], [ 73.0903961, 19.1086058 ], [ 73.08821, 19.108387 ], [ 73.0854169, 19.1064237 ], [ 73.0829942, 19.1064317 ], [ 73.0800819, 19.1051282 ], [ 73.0766374, 19.1036517 ], [ 73.074862, 19.1025171 ], [ 73.0738358, 19.1009842 ], [ 73.0722349, 19.0998255 ], [ 73.0707107, 19.100087 ], [ 73.0690842, 19.0995278 ], [ 73.0663081, 19.097162 ], [ 73.0635704, 19.0958182 ], [ 73.0598709, 19.095834 ], [ 73.0574338, 19.094592 ], [ 73.0572765, 19.0910998 ], [ 73.0561435, 19.0875047 ], [ 73.0565319, 19.085666 ], [ 73.0570739, 19.0824569 ], [ 73.0590859, 19.080702 ], [ 73.0591448, 19.0758072 ], [ 73.0587602, 19.0720249 ], [ 73.0572077, 19.0688925 ], [ 73.0557605, 19.0661569 ], [ 73.0559707, 19.0647526 ], [ 73.0558902, 19.0638253 ], [ 73.0552244, 19.0615963 ], [ 73.0556629, 19.0577576 ], [ 73.0552546, 19.0543288 ], [ 73.0549942, 19.0510539 ], [ 73.056339, 19.050115 ], [ 73.057177, 19.0497905 ], [ 73.058015, 19.0490448 ], [ 73.0591064, 19.0483493 ], [ 73.0609335, 19.0463826 ], [ 73.0601819, 19.0436732 ], [ 73.0599885, 19.0429759 ] ] } },
{ "type": "Feature", "properties": { "name": "400 KV LILO on Talegaon_Kalwa for Kharghar", "power": "line" }, "geometry": { "type": "LineString", "coordinates": [ [ 73.1097693, 19.1154306 ], [ 73.1080493, 19.1138844 ], [ 73.1066555, 19.1108571 ], [ 73.1053441, 19.108009 ], [ 73.1041154, 19.1053633 ], [ 73.1027541, 19.1024563 ], [ 73.1007873, 19.1002591 ], [ 73.0986834, 19.097914 ], [ 73.097843, 19.0969517 ], [ 73.0960935, 19.0943484 ], [ 73.0943218, 19.0917894 ], [ 73.09188, 19.0901723 ], [ 73.0898395, 19.0888487 ], [ 73.0883933, 19.0870921 ], [ 73.0877195, 19.0862764 ], [ 73.0866254, 19.0850886 ], [ 73.0850241, 19.0839295 ], [ 73.0843691, 19.0807954 ], [ 73.0822667, 19.0787038 ], [ 73.0801298, 19.078403 ], [ 73.0778019, 19.0780996 ], [ 73.0756711, 19.0766045 ], [ 73.0735187, 19.0751211 ], [ 73.0712213, 19.0735211 ], [ 73.0690042, 19.0719823 ], [ 73.0683504, 19.0697266 ], [ 73.0673791, 19.0664099 ], [ 73.0666298, 19.0637577 ], [ 73.0657817, 19.0608169 ], [ 73.0649707, 19.0580305 ], [ 73.0640765, 19.0548914 ], [ 73.0632254, 19.0520496 ], [ 73.062399, 19.0491989 ], [ 73.0616651, 19.0461762 ], [ 73.0612426, 19.0432089 ] ] } }
]
}
