{
"type": "FeatureCollection",
"name": "sample_kharghar_buildings",
"crs": { "type": "name", "properties": { "name": "urn:ogc:def:crs:OGC:1.3:CRS84" } },
"features": [
{ "type": "Feature", "properties": { "candidate_id": "KHAR_000001", "footprint_area_m2": 906.5, "usable_roof_area_m2": 616.4, "reported_height_m": 14.0, "height_confidence": 0.4, "terrain_elevation_m": 32.2, "source": "OSM" }, "geometry": { "type": "Polygon", "coordinates": [ [ [ 73.0654192, 19.0678633 ], [ 73.0654339, 19.0679125 ], [ 73.0654567, 19.0679064 ], [ 73.0654708, 19.0679537 ], [ 73.0656969, 19.0678935 ], [ 73.0656767, 19.0678258 ], [ 73.0656801, 19.0678249 ], [ 73.0656717, 19.0677967 ], [ 73.0657153, 19.0677851 ], [ 73.0656819, 19.0676733 ], [ 73.0656291, 19.0676873 ], [ 73.0656102, 19.067624 ], [ 73.0655648, 19.0676361 ], [ 73.0655561, 19.0676071 ], [ 73.0653456, 19.0676632 ], [ 73.0653575, 19.0677029 ], [ 73.0653228, 19.0677122 ], [ 73.0653383, 19.0677642 ], [ 73.0653074, 19.0677725 ], [ 73.0653407, 19.0678842 ], [ 73.0654192, 19.0678633 ] ], [ [ 73.0654223, 19.0677472 ], [ 73.0655763, 19.0677099 ], [ 73.0656063, 19.0678203 ], [ 73.0654523, 19.0678576 ], [ 73.0654223, 19.0677472 ] ] ] } },
{ "type": "Feature", "properties": { "candidate_id": "KHAR_000002", "footprint_area_m2": 1523.7, "usable_roof_area_m2": 1036.1, "reported_height_m": 14.0, "height_confidence": 0.4, "terrain_elevation_m": 17.4, "source": "OSM" }, "geometry": { "type": "Polygon", "coordinates": [ [ [ 73.0551356, 19.0276617 ], [ 73.0553367, 19.0273404 ], [ 73.0550127, 19.0271591 ], [ 73.0548115, 19.0274803 ], [ 73.0551356, 19.0276617 ] ], [ [ 73.0550109, 19.0274256 ], [ 73.055065200000016, 19.0273524 ], [ 73.0551554, 19.0274122 ], [ 73.0551011, 19.0274855 ], [ 73.0550109, 19.0274256 ] ] ] } },
{ "type": "Feature", "properties": { "candidate_id": "KHAR_000003", "footprint_area_m2": 1503.7, "usable_roof_area_m2": 1022.5, "reported_height_m": 14.0, "height_confidence": 0.4, "terrain_elevation_m": 34.5, "source": "OSM" }, "geometry": { "type": "Polygon", "coordinates": [ [ [ 73.0747669, 19.0699596 ], [ 73.0747075, 19.0696801 ], [ 73.0742175, 19.0697731 ], [ 73.0742769, 19.0700526 ], [ 73.0747669, 19.0699596 ] ], [ [ 73.0744336, 19.0698259 ], [ 73.0745636, 19.0698012 ], [ 73.0745847, 19.0699006 ], [ 73.0744547, 19.0699252 ], [ 73.0744336, 19.0698259 ] ] ] } },
{ "type": "Feature", "properties": { "candidate_id": "KHAR_000004", "footprint_area_m2": 1877.8, "usable_roof_area_m2": 1276.9, "reported_height_m": 14.0, "height_confidence": 0.4, "terrain_elevation_m": 20.6, "source": "OSM" }, "geometry": { "type": "Polygon", "coordinates": [ [ [ 73.0656866, 19.0312428 ], [ 73.0656961, 19.0312287 ], [ 73.0657471, 19.0312583 ], [ 73.0657369, 19.0312685 ], [ 73.0658416, 19.0313347 ], [ 73.065851800000019, 19.0313264 ], [ 73.0658688, 19.0313398 ], [ 73.0658539, 19.031359 ], [ 73.0659173, 19.031399 ], [ 73.0659587, 19.0313474 ], [ 73.0661905, 19.031315 ], [ 73.0662611, 19.0313596 ], [ 73.0664432, 19.0311161 ], [ 73.0662298, 19.03098 ], [ 73.066097, 19.031154 ], [ 73.0659582, 19.0311672 ], [ 73.0657731, 19.0310315 ], [ 73.0656346, 19.0312052 ], [ 73.0656866, 19.0312428 ] ], [ [ 73.0662216, 19.0311104 ], [ 73.0662758, 19.0311479 ], [ 73.0662287, 19.0312088 ], [ 73.0661745, 19.0311713 ], [ 73.0662216, 19.0311104 ] ] ] } },
{ "type": "Feature", "properties": { "candidate_id": "KHAR_000005", "footprint_area_m2": 3434.2, "usable_roof_area_m2": 2335.3, "reported_height_m": 14.0, "height_confidence": 0.4, "terrain_elevation_m": 20.1, "source": "OSM" }, "geometry": { "type": "Polygon", "coordinates": [ [ [ 73.06202, 19.0323505 ], [ 73.0623869, 19.0318688 ], [ 73.0619031, 19.0315395 ], [ 73.0615362, 19.0320212 ], [ 73.06202, 19.0323505 ] ], [ [ 73.0618235, 19.031919 ], [ 73.061865, 19.0319472 ], [ 73.0619429, 19.0318449 ], [ 73.0618984, 19.0318146 ], [ 73.0619393, 19.0317608 ], [ 73.062136, 19.0318946 ], [ 73.0619665, 19.0321172 ], [ 73.0617729, 19.0319854 ], [ 73.0618235, 19.031919 ] ] ] } },
{ "type": "Feature", "properties": { "candidate_id": "KHAR_000006", "footprint_area_m2": 673.8, "usable_roof_area_m2": 458.2, "reported_height_m": 14.0, "height_confidence": 0.4, "terrain_elevation_m": 15.4, "source": "OSM" }, "geometry": { "type": "Polygon", "coordinates": [ [ [ 73.0453737, 19.0266834 ], [ 73.0453402, 19.0267119 ], [ 73.045474, 19.0268523 ], [ 73.0456225, 19.0267259 ], [ 73.0456339, 19.0267378 ], [ 73.0456734, 19.0267041 ], [ 73.0455071, 19.0265296 ], [ 73.0454881, 19.0265457 ], [ 73.0454568, 19.026513 ], [ 73.0453213, 19.0266284 ], [ 73.0453737, 19.0266834 ] ], [ [ 73.0454635, 19.026632 ], [ 73.0455355, 19.0267075 ], [ 73.0454979, 19.0267395 ], [ 73.045425900000012, 19.0266639 ], [ 73.0454635, 19.026632 ] ] ] } },
{ "type": "Feature", "properties": { "candidate_id": "KHAR_000007", "footprint_area_m2": 1467.7, "usable_roof_area_m2": 998.0, "reported_height_m": 14.0, "height_confidence": 0.4, "terrain_elevation_m": 18.4, "source": "OSM" }, "geometry": { "type": "Polygon", "coordinates": [ [ [ 73.0604922, 19.0275448 ], [ 73.0604979, 19.0275351 ], [ 73.0605831, 19.0275801 ], [ 73.0605774, 19.0275897 ], [ 73.0607338, 19.0276722 ], [ 73.0607636, 19.0276216 ], [ 73.0607393, 19.0276088 ], [ 73.060889, 19.0273551 ], [ 73.0609133, 19.0273679 ], [ 73.060948, 19.0273092 ], [ 73.060633, 19.027143 ], [ 73.0604187, 19.027506 ], [ 73.0604922, 19.0275448 ] ], [ [ 73.060648, 19.0273173 ], [ 73.0607574, 19.027375 ], [ 73.0606961, 19.0274787 ], [ 73.0605868, 19.027421 ], [ 73.060648, 19.0273173 ] ] ] } },
{ "type": "Feature", "properties": { "candidate_id": "KHAR_000008", "footprint_area_m2": 4913.6, "usable_roof_area_m2": 3341.2, "reported_height_m": 14.0, "height_confidence": 0.4, "terrain_elevation_m": 17.1, "source": "OSM" }, "geometry": { "type": "Polygon", "coordinates": [ [ [ 73.0549696, 19.026176 ], [ 73.054728, 19.0260502 ], [ 73.0546744, 19.0261422 ], [ 73.0547554, 19.0261844 ], [ 73.054717, 19.0262502 ], [ 73.0548162, 19.0263019 ], [ 73.0547739, 19.0263742 ], [ 73.0546657, 19.0263178 ], [ 73.054577, 19.0264697 ], [ 73.0547282, 19.0265486 ], [ 73.0547481, 19.0266216 ], [ 73.054725, 19.0266103 ], [ 73.0546019, 19.0268357 ], [ 73.055015800000021, 19.0270376 ], [ 73.0551351, 19.0268191 ], [ 73.0551683, 19.0267862 ], [ 73.0552122, 19.026791 ], [ 73.0552192, 19.0268145 ], [ 73.0553616, 19.026882 ], [ 73.0554349, 19.0267438 ], [ 73.055306, 19.0266826 ], [ 73.0553517, 19.0265963 ], [ 73.0554789, 19.0266566 ], [ 73.0555572, 19.026509 ], [ 73.0554209, 19.0264443 ], [ 73.0554016, 19.0263569 ], [ 73.0554899, 19.0262052 ], [ 73.0553715, 19.0261437 ], [ 73.0553522, 19.0261769 ], [ 73.0552354, 19.0261161 ], [ 73.0552547, 19.0260829 ], [ 73.0551054, 19.0260053 ], [ 73.0550082, 19.0261723 ], [ 73.0549696, 19.026176 ] ], [ [ 73.0550086, 19.0267064 ], [ 73.05490810000002, 19.0266573 ], [ 73.054834, 19.0263865 ], [ 73.054892400000014, 19.0262863 ], [ 73.0551637, 19.0262264 ], [ 73.055276, 19.0262859 ], [ 73.0553247, 19.0265279 ], [ 73.055268, 19.0266359 ], [ 73.0550086, 19.0267064 ] ] ] } },
{ "type": "Feature", "properties": { "candidate_id": "KHAR_000009", "footprint_area_m2": 640.8, "usable_roof_area_m2": 435.7, "reported_height_m": 14.0, "height_confidence": 0.4, "terrain_elevation_m": 16.1, "source": "OSM" }, "geometry": { "type": "Polygon", "coordinates": [ [ [ 73.0514551, 19.0253869 ], [ 73.0514483, 19.0254482 ], [ 73.0514696, 19.0254516 ], [ 73.0514688, 19.0254664 ], [ 73.0514777, 19.0254672 ], [ 73.051476, 19.0254854 ], [ 73.0516014, 19.0254999 ], [ 73.051602, 19.0254912 ], [ 73.0516098, 19.0254917 ], [ 73.0516101, 19.0254865 ], [ 73.051619, 19.0254865 ], [ 73.0516198, 19.0254949 ], [ 73.0516935, 19.0254965 ], [ 73.0517027, 19.0254063 ], [ 73.0516166, 19.0253957 ], [ 73.0516795, 19.025349 ], [ 73.0515642, 19.02521 ], [ 73.0515014, 19.025203 ], [ 73.051492, 19.0252635 ], [ 73.0514129, 19.0252575 ], [ 73.0514023, 19.0253829 ], [ 73.0514551, 19.0253869 ] ], [ [ 73.0515956, 19.0254 ], [ 73.0515059, 19.0253903 ], [ 73.0515134, 19.025301 ], [ 73.0515956, 19.0254 ] ] ] } },
{ "type": "Feature", "properties": { "candidate_id": "KHAR_000010", "footprint_area_m2": 1041.6, "usable_roof_area_m2": 708.3, "reported_height_m": 14.0, "height_confidence": 0.4, "terrain_elevation_m": 21.3, "source": "OSM" }, "geometry": { "type": "Polygon", "coordinates": [ [ [ 73.0871139, 19.0218498 ], [ 73.0869937, 19.0216902 ], [ 73.0869712, 19.0217053 ], [ 73.0869519, 19.0216796 ], [ 73.0869744, 19.0216645 ], [ 73.0869163, 19.0215874 ], [ 73.0869572, 19.0215599 ], [ 73.0869071, 19.0214933 ], [ 73.0866421, 19.0216717 ], [ 73.0866976, 19.0217454 ], [ 73.086753, 19.0217081 ], [ 73.0867643, 19.0217231 ], [ 73.086747, 19.0217347 ], [ 73.0867878, 19.0217889 ], [ 73.0868096, 19.0217743 ], [ 73.0868275, 19.021798 ], [ 73.0868057, 19.0218127 ], [ 73.0868504, 19.021872 ], [ 73.0868613, 19.0218647 ], [ 73.0868912, 19.0219044 ], [ 73.0868803, 19.0219117 ], [ 73.08692790000002, 19.021975 ], [ 73.0871139, 19.0218498 ] ], [ [ 73.0868872, 19.0216799 ], [ 73.0869605, 19.0217852 ], [ 73.0869044, 19.0218201 ], [ 73.0868311, 19.0217148 ], [ 73.0868872, 19.0216799 ] ] ] } }
]
}
